EUTELSAT 7A             
1 28187U 04008A   25354.45266895  .00000122  00000+0  00000+0 0  9995
2 28187   5.3763  74.1646 0000842 196.1092 202.7633  1.00270468 79560
EUTELSAT 174A           
1 28924U 05052A   25354.48100553  .00000029  00000+0  00000+0 0  9991
2 28924   3.7657  78.7635 0005812 193.2886 164.4364  1.00269737 50530
EUTELSAT HOTBIRD 13B    
1 29270U 06032A   25354.27250644  .00000179  00000+0  00000+0 0  9995
2 29270   1.1990  84.3104 0003487 180.6102 315.3816  1.00273726 45512
EUTELSAT HOTBIRD 13C    
1 33459U 08065A   25354.46993434 -.00000261  00000+0  00000+0 0  9992
2 33459   2.4902  81.3360 0003440 182.5989 304.2391  1.00271650 45550
EUTELSAT 36B            
1 36101U 09065A   25354.41862735  .00000136  00000+0  00000+0 0  9994
2 36101   0.0503  35.1743 0005618 233.3076  21.9615  1.00270381 58917
EUTELSAT KA-SAT 9A      
1 37258U 10069A   25354.26773973  .00000086  00000+0  00000+0 0  9996
2 37258   0.0495 338.2800 0002025 203.9398  12.2819  1.00270278 42211
EUTELSAT 7 WEST A       
1 37816U 11051A   25354.26444638 -.00000036  00000+0  00000+0 0  9997
2 37816   0.0618 359.0681 0005163 230.6677 307.2628  1.00272132 52081
EUTELSAT 16A            
1 37836U 11057A   25354.26912641  .00000128  00000+0  00000+0 0  9990
2 37836   0.0600 337.3790 0005861 292.9990 291.6220  1.00269222  5536
